OBJECT_NAME,OBJECT_ID,EPOCH,MEAN_MOTION,ECCENTRICITY,INCLINATION,RA_OF_ASC_NODE,ARG_OF_PERICENTER,MEAN_ANOMALY,EPHEMERIS_TYPE,CLASSIFICATION_TYPE,NORAD_CAT_ID,ELEMENT_SET_NO,REV_AT_EPOCH,BSTAR,MEAN_MOTION_DOT,MEAN_MOTION_DDOT
GLOBALSTAR M069,2007-020C,2026-07-13T08:29:04.199712,12.23472181,.0001705,52.0009,178.0647,206.3991,300.8376,0,U,31573,999,88200,.25942E-4,-.9E-6,0
GLOBALSTAR M072,2007-020D,2026-07-13T13:12:47.571840,11.91658730,.0001648,51.9946,30.0590,32.2822,1.3138,0,U,31574,999,87812,.17604E-3,-.71E-6,0
GLOBALSTAR M066,2007-048C,2026-07-12T20:25:51.123360,12.30389166,.00056309,51.9611,344.2390,97.0286,66.9340,0,U,32265,999,86338,.24795796E-3,-.65E-6,0
GLOBALSTAR M079,2010-054A,2026-07-13T07:58:04.998720,12.62266410,.0001114,52.0051,29.0813,74.3440,282.3273,0,U,37188,999,72584,.1348E-4,-.101E-5,0
GLOBALSTAR M074,2010-054B,2026-07-13T12:30:51.032736,12.62262029,.0000869,52.0030,27.7659,91.4288,286.4251,0,U,37189,999,72648,.31406E-4,-.98E-6,0
GLOBALSTAR M076,2010-054C,2026-07-13T13:14:04.172352,12.62262322,.0001094,52.0043,27.8802,87.5680,306.6403,0,U,37190,999,72620,.10662E-3,-.85E-6,0
GLOBALSTAR M077,2010-054D,2026-07-13T06:14:01.402080,11.67547614,.0002303,51.9951,113.1190,221.6558,307.2346,0,U,37191,999,72418,-.27194E-3,-.93E-6,0
GLOBALSTAR M075,2010-054E,2026-07-13T00:48:09.897696,12.62267797,.00007186,51.9950,71.4966,61.9364,77.7815,0,U,37192,999,72520,.24892418E-4,-.99E-6,0
GLOBALSTAR M073,2010-054F,2026-07-13T09:42:33.513984,12.62266869,.0001081,52.0080,344.4875,93.9025,291.3444,0,U,37193,999,72724,-.11221E-4,-.106E-5,0
GLOBALSTAR M083,2011-033A,2026-07-13T10:17:30.753024,12.62264050,.0000811,51.9869,292.6077,104.0858,332.8024,0,U,37739,999,69626,.10542E-3,-.85E-6,0
GLOBALSTAR M088,2011-033B,2026-07-13T10:08:07.115712,12.62269452,.0000079,52.0186,199.1173,147.8200,18.0885,0,U,37740,999,69180,.65818E-4,-.92E-6,0
GLOBALSTAR M091,2011-033C,2026-07-13T06:30:02.365344,12.62264251,.0000383,51.9977,162.5044,20.3238,117.6967,0,U,37741,999,69257,-.59617E-4,-.114E-5,0
GLOBALSTAR M085,2011-033D,2026-07-13T06:20:35.665152,12.62264316,.0000747,52.0122,113.8395,38.3068,129.9147,0,U,37742,999,69308,-.5652E-4,-.114E-5,0
GLOBALSTAR M081,2011-033E,2026-07-13T04:58:34.194144,12.62265286,.00006349,51.9951,116.4193,52.1765,96.9089,0,U,37743,999,69322,-.10446786E-3,-.122E-5,0
GLOBALSTAR M089,2011-033F,2026-07-13T02:07:42.853152,12.62267557,.00006812,51.9933,70.9345,87.1405,63.6032,0,U,37744,999,69405,.22594661E-4,-.1E-5,0
GLOBALSTAR M084,2011-080A,2026-07-13T11:34:38.451072,12.62263497,.0000876,52.0021,297.2320,127.5884,312.9037,0,U,38040,999,67208,.7827E-4,-.9E-6,0
GLOBALSTAR M080,2011-080B,2026-07-13T10:52:43.225248,12.62257328,.0000322,52.0064,299.0477,81.0136,356.9773,0,U,38041,999,67220,.70577E-4,-.91E-6,0
GLOBALSTAR M082,2011-080C,2026-07-13T11:22:34.563360,12.62264119,.0000207,52.0063,254.4891,94.8998,7.2449,0,U,38042,999,67291,.18317E-3,-.71E-6,0
GLOBALSTAR M092,2011-080D,2026-07-13T10:23:34.312992,12.62267775,.0000806,52.0104,345.0105,100.4772,294.7204,0,U,38043,999,67136,.88877E-4,-.88E-6,0
GLOBALSTAR M090,2011-080E,2026-07-13T08:05:43.648800,12.62269392,.0000441,52.0109,248.8695,97.8861,341.5157,0,U,38044,999,67301,.21235E-3,-.66E-6,0
GLOBALSTAR M086,2011-080F,2026-07-13T08:37:00.947136,12.62287710,.0001555,51.9878,248.6890,109.3959,332.3649,0,U,38045,999,67296,.13766E-3,-.79E-6,0
GLOBALSTAR M097,2013-005A,2026-07-13T07:02:50.031168,12.62271431,.0000383,52.0026,163.8647,37.5413,322.5480,0,U,39072,999,62020,-.80269E-4,-.118E-5,0
GLOBALSTAR M093,2013-005B,2026-07-13T06:24:16.715232,12.62266344,.0000608,52.0087,157.3029,41.5808,318.5105,0,U,39073,999,62015,-.59923E-4,-.115E-5,0
GLOBALSTAR M094,2013-005C,2026-07-12T20:53:56.397696,12.62264077,.00009481,51.9967,72.6003,58.2720,301.8239,0,U,39074,999,62171,-.95421143E-4,-.121E-5,0
GLOBALSTAR M096,2013-005D,2026-07-13T04:49:31.323072,12.62265679,.0000702,52.0067,120.4160,38.1669,321.9247,0,U,39075,999,62067,-.75049E-4,-.117E-5,0
GLOBALSTAR M078,2013-005E,2026-07-13T09:52:53.536800,12.62260133,.0000788,51.9843,203.7494,332.9805,27.1021,0,U,39076,999,61932,.50443E-4,-.95E-6,0
GLOBALSTAR M095,2013-005F,2026-07-12T09:48:59.292576,12.62264177,.00003526,52.0054,204.4426,10.4758,349.6116,0,U,39077,999,61905,.12838796E-3,-.81E-6,0
GLOBALSTAR M087,2022-064A,2026-07-13T10:50:12.567840,12.62269311,.0000926,52.0015,342.4924,83.5038,276.5934,0,U,52888,999,19445,-.7289E-5,-.105E-5,0
